{"type": "FeatureCollection", "features": [ {"type": "Feature", "properties": {"norad_id": 36539, "name": "COSMOS 2251 DEB", "group": "cosmos-2251-debris", "lat": 23.08203100713606, "lon": 66.49993226719491, "alt_km": 714.0920219349828, "timestamp": "2025-12-10T11:33:53.781322+00:00", "meta": {"OBJECT_NAME": "COSMOS 2251 DEB", "OBJECT_ID": "1993-036BCZ", "EPOCH": "2025-12-10T04:52:23.145024", "MEAN_MOTION": 14.59272978, "ECCENTRICITY": 0.0027355, "INCLINATION": 74.0238, "RA_OF_ASC_NODE": 60.0188, "ARG_OF_PERICENTER": 205.6833, "MEAN_ANOMALY": 154.2975, "EPHEMERIS_TYPE": 0, "CLASSIFICATION_TYPE": "U", "NORAD_CAT_ID": 36539, "ELEMENT_SET_NO": 999, "REV_AT_EPOCH": 83910, "BSTAR": 0.0010652, "MEAN_MOTION_DOT": 5.031e-05, "MEAN_MOTION_DDOT": 0}, "tle": {"line1": "1 36539U 93036BCZ 25344.20304566  .00005031  00000+0  10652-2 0  9995", "line2": "2 36539  74.0238  60.0188 0027355 205.6833 154.2975 14.59272978839102"}}, "geometry": {"type": "Point", "coordinates": [66.49993226719491, 23.08203100713606]}}, {"type": "Feature", "properties": {"norad_id": 36540, "name": "COSMOS 2251 DEB", "group": "cosmos-2251-debris", "lat": -6.904581648279604, "lon": -177.17076420603715, "alt_km": 703.2187035002553, "timestamp": "2025-12-10T11:33:53.781333+00:00", "meta": {"OBJECT_NAME": "COSMOS 2251 DEB", "OBJECT_ID": "1993-036BDA", "EPOCH": "2025-12-08T23:22:46.979040", "MEAN_MOTION": 14.58425444, "ECCENTRICITY": 0.0015171, "INCLINATION": 74.0278, "RA_OF_ASC_NODE": 187.6868, "ARG_OF_PERICENTER": 257.9646, "MEAN_ANOMALY": 101.9818, "EPHEMERIS_TYPE": 0, "CLASSIFICATION_TYPE": "U", "NORAD_CAT_ID": 36540, "ELEMENT_SET_NO": 999, "REV_AT_EPOCH": 85955, "BSTAR": 0.001195, "MEAN_MOTION_DOT": 5.525e-05, "MEAN_MOTION_DDOT": 0}, "tle": {"line1": "1 36540U 93036BDA 25342.97415485  .00005525  00000+0  11950-2 0  9992", "line2": "2 36540  74.0278 187.6868 0015171 257.9646 101.9818 14.58425444859557"}}, "geometry": {"type": "Point", "coordinates": [-177.17076420603715, -6.904581648279604]}}, {"type": "Feature", "properties": {"norad_id": 36550, "name": "COSMOS 2251 DEB", "group": "cosmos-2251-debris", "lat": 73.65004214592727, "lon": -85.96318554320959, "alt_km": 847.3212255214548, "timestamp": "2025-12-10T11:33:53.781343+00:00", "meta": {"OBJECT_NAME": "COSMOS 2251 DEB", "OBJECT_ID": "1993-036BDL", "EPOCH": "2025-12-05T23:29:18.021984", "MEAN_MOTION": 14.27168955, "ECCENTRICITY": 0.00788112, "INCLINATION": 74.0447, "RA_OF_ASC_NODE": 204.9723, "ARG_OF_PERICENTER": 257.0912, "MEAN_ANOMALY": 102.1425, "EPHEMERIS_TYPE": 0, "CLASSIFICATION_TYPE": "U", "NORAD_CAT_ID": 36550, "ELEMENT_SET_NO": 999, "REV_AT_EPOCH": 84499, "BSTAR": 0.0010210292, "MEAN_MOTION_DOT": 2.55e-05, "MEAN_MOTION_DDOT": 0}, "tle": {"line1": "1 36550U 93036BDL 25339.97868081  .00002550  00000+0  10210-2 0  9996", "line2": "2 36550  74.0447 204.9723 0078811 257.0912 102.1425 14.27168955844992"}}, "geometry": {"type": "Point", "coordinates": [-85.96318554320959, 73.65004214592727]}}, {"type": "Feature", "properties": {"norad_id": 36551, "name": "COSMOS 2251 DEB", "group": "cosmos-2251-debris", "lat": -65.24915945005715, "lon": -121.82082008291287, "alt_km": 558.561606411532, "timestamp": "2025-12-10T11:33:53.781353+00:00", "meta": {"OBJECT_NAME": "COSMOS 2251 DEB", "OBJECT_ID": "1993-036BDM", "EPOCH": "2025-12-09T20:03:54.160128", "MEAN_MOTION": 15.02417323, "ECCENTRICITY": 0.0051053, "INCLINATION": 73.8895, "RA_OF_ASC_NODE": 20.6836, "ARG_OF_PERICENTER": 330.2363, "MEAN_ANOMALY": 29.5921, "EPHEMERIS_TYPE": 0, "CLASSIFICATION_TYPE": "U", "NORAD_CAT_ID": 36551, "ELEMENT_SET_NO": 999, "REV_AT_EPOCH": 66888, "BSTAR": 0.0020894, "MEAN_MOTION_DOT": 0.00028555, "MEAN_MOTION_DDOT": 0}, "tle": {"line1": "1 36551U 93036BDM 25343.83604352  .00028555  00000+0  20894-2 0  9998", "line2": "2 36551  73.8895  20.6836 0051053 330.2363  29.5921 15.02417323668883"}}, "geometry": {"type": "Point", "coordinates": [-121.82082008291287, -65.24915945005715]}}, {"type": "Feature", "properties": {"norad_id": 36557, "name": "COSMOS 2251 DEB", "group": "cosmos-2251-debris", "lat": 66.00722186499694, "lon": 170.90888401401776, "alt_km": 641.5458995703784, "timestamp": "2025-12-10T11:33:53.781363+00:00", "meta": {"OBJECT_NAME": "COSMOS 2251 DEB", "OBJECT_ID": "1993-036BDT", "EPOCH": "2025-12-08T17:00:11.364768", "MEAN_MOTION": 14.77931999, "ECCENTRICITY": 0.00210313, "INCLINATION": 73.9794, "RA_OF_ASC_NODE": 134.1932, "ARG_OF_PERICENTER": 285.3686, "MEAN_ANOMALY": 74.5165, "EPHEMERIS_TYPE": 0, "CLASSIFICATION_TYPE": "U", "NORAD_CAT_ID": 36557, "ELEMENT_SET_NO": 999, "REV_AT_EPOCH": 33837, "BSTAR": 0.00427946, "MEAN_MOTION_DOT": 0.00031056, "MEAN_MOTION_DDOT": 0}, "tle": {"line1": "1 36557U 93036BDT 25342.70846487  .00031056  00000+0  42795-2 0  9990", "line2": "2 36557  73.9794 134.1932 0021031 285.3686  74.5165 14.77931999338376"}}, "geometry": {"type": "Point", "coordinates": [170.90888401401776, 66.00722186499694]}}, {"type": "Feature", "properties": {"norad_id": 36558, "name": "COSMOS 2251 DEB", "group": "cosmos-2251-debris", "lat": -15.241155608833415, "lon": -16.710633055746545, "alt_km": 706.921232166841, "timestamp": "2025-12-10T11:33:53.781373+00:00", "meta": {"OBJECT_NAME": "COSMOS 2251 DEB", "OBJECT_ID": "1993-036BDU", "EPOCH": "2025-12-09T18:10:09.606432", "MEAN_MOTION": 14.55323693, "ECCENTRICITY": 0.0012963, "INCLINATION": 74.0418, "RA_OF_ASC_NODE": 160.1895, "ARG_OF_PERICENTER": 248.6111, "MEAN_ANOMALY": 111.367, "EPHEMERIS_TYPE": 0, "CLASSIFICATION_TYPE": "U", "NORAD_CAT_ID": 36558, "ELEMENT_SET_NO": 999, "REV_AT_EPOCH": 85225, "BSTAR": 0.0013992, "MEAN_MOTION_DOT": 6.051e-05, "MEAN_MOTION_DDOT": 0}, "tle": {"line1": "1 36558U 93036BDU 25343.75705563  .00006051  00000+0  13992-2 0  9990", "line2": "2 36558  74.0418 160.1895 0012963 248.6111 111.3670 14.55323693852259"}}, "geometry": {"type": "Point", "coordinates": [-16.710633055746545, -15.241155608833415]}}, {"type": "Feature", "properties": {"norad_id": 36559, "name": "COSMOS 2251 DEB", "group": "cosmos-2251-debris", "lat": 18.142050685431837, "lon": -171.67885430539374, "alt_km": 982.7623085735986, "timestamp": "2025-12-10T11:33:53.781383+00:00", "meta": {"OBJECT_NAME": "COSMOS 2251 DEB", "OBJECT_ID": "1993-036BDV", "EPOCH": "2025-12-09T02:07:20.280288", "MEAN_MOTION": 13.95143806, "ECCENTRICITY": 0.02599602, "INCLINATION": 74.1299, "RA_OF_ASC_NODE": 16.0496, "ARG_OF_PERICENTER": 49.9692, "MEAN_ANOMALY": 312.3935, "EPHEMERIS_TYPE": 0, "CLASSIFICATION_TYPE": "U", "NORAD_CAT_ID": 36559, "ELEMENT_SET_NO": 999, "REV_AT_EPOCH": 81043, "BSTAR": 0.0028021544, "MEAN_MOTION_DOT": 4.995e-05, "MEAN_MOTION_DDOT": 0}, "tle": {"line1": "1 36559U 93036BDV 25343.08842917  .00004995  00000+0  28022-2 0  9997", "line2": "2 36559  74.1299  16.0496 0259960  49.9692 312.3935 13.95143806810430"}}, "geometry": {"type": "Point", "coordinates": [-171.67885430539374, 18.142050685431837]}}, {"type": "Feature", "properties": {"norad_id": 36614, "name": "COSMOS 2251 DEB", "group": "cosmos-2251-debris", "lat": 6.852830414410071, "lon": -3.075088823991871, "alt_km": 691.407511824561, "timestamp": "2025-12-10T11:33:53.781393+00:00", "meta": {"OBJECT_NAME": "COSMOS 2251 DEB", "OBJECT_ID": "1993-036BEC", "EPOCH": "2025-12-09T19:58:34.749696", "MEAN_MOTION": 14.60202998, "ECCENTRICITY": 0.0016223, "INCLINATION": 74.0212, "RA_OF_ASC_NODE": 180.1387, "ARG_OF_PERICENTER": 250.2574, "MEAN_ANOMALY": 109.6842, "EPHEMERIS_TYPE": 0, "CLASSIFICATION_TYPE": "U", "NORAD_CAT_ID": 36614, "ELEMENT_SET_NO": 999, "REV_AT_EPOCH": 65570, "BSTAR": 0.002004, "MEAN_MOTION_DOT": 9.662e-05, "MEAN_MOTION_DDOT": 0}, "tle": {"line1": "1 36614U 93036BEC 25343.83234664  .00009662  00000+0  20040-2 0  9994", "line2": "2 36614  74.0212 180.1387 0016223 250.2574 109.6842 14.60202998655709"}}, "geometry": {"type": "Point", "coordinates": [-3.075088823991871, 6.852830414410071]}}, {"type": "Feature", "properties": {"norad_id": 36622, "name": "COSMOS 2251 DEB", "group": "cosmos-2251-debris", "lat": 65.96988084303533, "lon": -70.11287790734163, "alt_km": 682.8168414572929, "timestamp": "2025-12-10T11:33:53.781404+00:00", "meta": {"OBJECT_NAME": "COSMOS 2251 DEB", "OBJECT_ID": "1993-036BEL", "EPOCH": "2025-12-07T18:00:44.362080", "MEAN_MOTION": 14.76130008, "ECCENTRICITY": 0.00687085, "INCLINATION": 74.0127, "RA_OF_ASC_NODE": 155.2579, "ARG_OF_PERICENTER": 291.6324, "MEAN_ANOMALY": 67.7541, "EPHEMERIS_TYPE": 0, "CLASSIFICATION_TYPE": "U", "NORAD_CAT_ID": 36622, "ELEMENT_SET_NO": 999, "REV_AT_EPOCH": 66676, "BSTAR": 0.0010654006, "MEAN_MOTION_DOT": 7.621e-05, "MEAN_MOTION_DDOT": 0}, "tle": {"line1": "1 36622U 93036BEL 25341.75051345  .00007621  00000+0  10654-2 0  9998", "line2": "2 36622  74.0127 155.2579 0068708 291.6324  67.7541 14.76130008666763"}}, "geometry": {"type": "Point", "coordinates": [-70.11287790734163, 65.96988084303533]}}, {"type": "Feature", "properties": {"norad_id": 36632, "name": "COSMOS 2251 DEB", "group": "cosmos-2251-debris", "lat": 1.3703673172062965, "lon": 116.18064363702761, "alt_km": 766.0894588368501, "timestamp": "2025-12-10T11:33:53.781413+00:00", "meta": {"OBJECT_NAME": "COSMOS 2251 DEB", "OBJECT_ID": "1993-036BEW", "EPOCH": "2025-12-08T03:50:26.997216", "MEAN_MOTION": 14.43133085, "ECCENTRICITY": 0.00317609, "INCLINATION": 74.0032, "RA_OF_ASC_NODE": 300.8928, "ARG_OF_PERICENTER": 49.809, "MEAN_ANOMALY": 310.5839, "EPHEMERIS_TYPE": 0, "CLASSIFICATION_TYPE": "U", "NORAD_CAT_ID": 36632, "ELEMENT_SET_NO": 999, "REV_AT_EPOCH": 65149, "BSTAR": 0.0011897932, "MEAN_MOTION_DOT": 3.995e-05, "MEAN_MOTION_DDOT": 0}, "tle": {"line1": "1 36632U 93036BEW 25342.16003469  .00003995  00000+0  11898-2 0  9990", "line2": "2 36632  74.0032 300.8928 0031760  49.8090 310.5839 14.43133085651491"}}, "geometry": {"type": "Point", "coordinates": [116.18064363702761, 1.3703673172062965]}}]}